{"type": "FeatureCollection", "features": [{"type": "Feature", "properties": {"name": "Dera Ghazi Khan", "id": "dgkhan", "shapeName": "Dera Ghazi Khan"}, "geometry": {"type": "Polygon", "coordinates": [[[69.96977380256934, 30.27252184496675], [69.98285980993234, 30.268876142819806], [70.00701211791494, 30.260852887950477], [70.02125578552614, 30.248549290017763], [70.02992584540152, 30.227683146160302], [70.02693583612, 30.20761327823027], [70.00123288468995, 30.1827841944351], [69.98762543886295, 30.168406600684136], [69.97552993236053, 30.15533423978337], [69.95889861058248, 30.137030024316232], [69.95738667215727, 30.05069300707669], [69.94982698093048, 30.025824441244993], [69.92865984387674, 30.016660765082293], [69.90598076929712, 30.00880551076574], [69.90144495402149, 29.962970801861047], [69.8938852627947, 29.9393904312235], [69.87423006416617, 29.926287808135896], [69.87423006416617, 29.889591289506484], [69.85457486643702, 29.868615782692245], [69.83794354465891, 29.848947239023914], [69.81980028355628, 29.830586434616293], [69.81375253075475, 29.805662803295775], [69.79107345527581, 29.78073295945859], [69.76385856542049, 29.737419001685623], [69.74117949174018, 29.695399717822795], [69.71698847783603, 29.677010752044623], [69.66558257407661, 29.667815006057708], [69.64592737544808, 29.661246102425764], [69.63534380737087, 29.65599067123253], [69.62173636244324, 29.634966199030885], [69.62173636244324, 29.620509328242974], [69.60812891751561, 29.6073649172572], [69.59452147258793, 29.599477449224935], [69.59340420793791, 29.581989107711195], [69.59300953416272, 29.57581134261943], [69.59391290046005, 29.56245215014667], [69.59603341101314, 29.53109355842105], [69.5899856573123, 29.486355994533596], [69.58393790451072, 29.473194125908208], [69.5718423980083, 29.462663400195822], [69.56730658273267, 29.444231999906947], [69.56881852025856, 29.42184651260652], [69.57335433643351, 29.406042023020973], [69.58696178046188, 29.398138855523825], [69.61871248559277, 29.398138855523825], [69.62324830086845, 29.38496554662271], [69.64139156107171, 29.374425670308483], [69.64743931387329, 29.307208313512888], [69.66558257407661, 29.276880107431055], [69.68372583338055, 29.26369112154805], [69.70791684728471, 29.265010096938454], [69.71850041626124, 29.267647995558605], [69.73210786118892, 29.26896691968767], [69.76234662699528, 29.250500435047115], [69.76385856542049, 29.225433444597854], [69.75327499734328, 29.204319640938706], [69.73361979871481, 29.183201486359565], [69.73664367556523, 29.155477310429603], [69.72606010748802, 29.115858360275183], [69.70489297043429, 29.094722010612372], [69.70035715605798, 29.06829547185862], [69.68070195742945, 29.052436295398763], [69.66255869812545, 29.039218452069974], [69.64139156107171, 29.022032724330813], [69.62778411614408, 29.011455470393685], [69.61871248559277, 28.987652688420894], [69.59603341101314, 28.97045838294804], [69.58847371888709, 28.944000025281014], [69.55672301465546, 28.91356455975665], [69.52043649424888, 28.888415480989693], [69.50229323404557, 28.864584418036486], [69.49170966596836, 28.836774604164702], [69.49170966596836, 28.82220459146879], [69.49926935809447, 28.804982856673575], [69.5143887414473, 28.79305844978768], [69.53706781602693, 28.77980750870961], [69.55369913780504, 28.759927940921784], [69.55521107623025, 28.73341596117774], [69.53555587760172, 28.713527561148055], [69.50985292527236, 28.70026652518004], [69.49019772754315, 28.688330157310986], [69.4735664057651, 28.66445333865073], [69.47205446733983, 28.631282063516494], [69.45844702331152, 28.619337837371347], [69.44786345433499, 28.60871960672455], [69.44786345433499, 28.58216933384773], [69.43274407098215, 28.562252229257012], [69.39192173619921, 28.543659531062588], [69.35865909264305, 28.535690226522775], [69.34051583243979, 28.52373513926534], [69.34051583243979, 28.505135642196194], [69.35865909264305, 28.49450588673733], [69.37075459914547, 28.475901236552886], [69.37226653757068, 28.451976157573654], [69.381338168122, 28.437352610934283], [69.40250530517574, 28.428045663776402], [69.40326124561005, 28.42006763041684], [69.41913662605452, 28.42006763041684], [69.43425600940736, 28.430704874530363], [69.44635151590978, 28.440011587864547], [69.46298283768789, 28.455964046503595], [69.47205446733983, 28.46659768343642], [69.50985292527236, 28.470585021081888], [69.55672301465546, 28.470585021081888], [69.58393790451072, 28.461280999418648], [69.59603341101314, 28.451976157573654], [69.61266473279125, 28.43336401873455], [69.62778411614408, 28.422727041719668], [69.65802288284982, 28.422727041719668], [69.68221389585466, 28.4213973437125], [69.71547653941082, 28.42006763041684], [69.71849382782796, 28.418298440920353], [69.71852196761478, 28.418375573973606], [69.71908612852206, 28.427802532061264], [69.72416358298301, 28.43474817518819], [69.72642022931018, 28.439709070317406], [69.72754855202413, 28.44516578597228], [69.72698439021747, 28.44863809447253], [69.71852196761478, 28.457566364096465], [69.70216128241731, 28.465997928261856], [69.69031388987418, 28.46897361224245], [69.67508152649128, 28.476412458867912], [69.67113239564361, 28.48980106186957], [69.67113239564361, 28.49426355182152], [69.66266997214154, 28.50070903879117], [69.65138674140502, 28.50963290803236], [69.64630928694407, 28.517564603823473], [69.64348847970962, 28.525991375501633], [69.64348847970962, 28.53441747358761], [69.64348847970962, 28.54730314512409], [69.6423601560964, 28.557709651978882], [69.63784686344206, 28.57108793436072], [69.6361543789215, 28.578519579215254], [69.63389773349365, 28.589418374058766], [69.63220524807377, 28.602297312371093], [69.63051276355327, 28.615669923628104], [69.6361543789215, 28.62458405141291], [69.64292431790301, 28.636468379112443], [69.65082257959841, 28.63795382530884], [69.66436245756142, 28.640429522204727], [69.68974972806757, 28.643895399653047], [69.69708382795636, 28.644885629668124], [69.70554625145837, 28.64835136052693], [69.7083670595922, 28.658252816214542], [69.71965029032867, 28.66468826135423], [69.72642022931018, 28.667163326926072], [69.73036936015791, 28.67755796542781], [69.73601097642546, 28.685971917270194], [69.74503756083482, 28.692405659093936], [69.75293582253022, 28.700323569177442], [69.75744911518456, 28.712199310150083], [69.75970576151173, 28.729515682402848], [69.76139824603229, 28.7453452837579], [69.7619624078389, 28.759688789606003], [69.76309073055285, 28.769085188730514], [69.76591153868662, 28.776502802362472], [69.77719477032247, 28.783919888092385], [69.79242713190666, 28.78639213339028], [69.80878781800345, 28.791830864402925], [69.81442943337169, 28.800235620677427], [69.81668607879953, 28.809134034608064], [69.8172502406062, 28.817043097161275], [69.82176353326048, 28.824951559866633], [69.8341750885096, 28.832365197595834], [69.84038086478512, 28.843731750519908], [69.84263751111229, 28.859049921816506], [69.84038086478512, 28.87337778215897], [69.83473924941688, 28.887209703265228], [69.82853347224199, 28.899558076643984], [69.82007104873998, 28.910917281207617], [69.81555775608564, 28.91733715278741], [69.81330111065779, 28.92820064384466], [69.8138652724644, 28.942518960581594], [69.81273694885118, 28.959797053191494], [69.80991614071735, 28.970162524880664], [69.81048030252401, 28.98102047791275], [69.81837856421942, 28.99829214486664], [69.83079011856915, 29.00520000387712], [69.84038086478512, 29.010133904955808], [69.84150918839839, 29.038252648540947], [69.84376583472556, 29.051076198507815], [69.85392074274813, 29.056007907938636], [69.86294732715749, 29.060446245697733], [69.86746062071114, 29.069815442129027], [69.86971726703831, 29.081155961478487], [69.87028142884492, 29.096931998313096], [69.8691531052317, 29.114677151129683], [69.87197391246616, 29.124041414779526], [69.8770513669271, 29.1299552468372], [69.89792534477891, 29.13143365134198], [69.91372186906904, 29.131926448346974], [69.93346752330763, 29.133897612085207], [69.94023746138981, 29.137839827146365], [69.94700740127058, 29.147694702448632], [69.95039236941238, 29.165431095868428], [69.95039236941238, 29.179716518102907], [69.9605472792336, 29.18562714587614], [69.97183050997012, 29.191537433705662], [69.98198541799269, 29.205326779107622], [69.98424206342054, 29.218621890387965], [69.97972877166552, 29.258004683069714], [69.9808570952788, 29.270308698287863], [69.98931951788148, 29.278674582266206], [70.00398771945777, 29.28310330267533], [70.0090651730194, 29.29196016702815], [70.01019349573329, 29.30180022689899], [70.0090651730194, 29.30967159167068], [70.01357846567373, 29.321969385378907], [70.02147672736913, 29.329839194323426], [70.03388828171887, 29.330331037147687], [70.04009405979309, 29.338692003633128], [70.04009405979309, 29.345576991085295], [70.04065821980106, 29.35688703151135], [70.03840157437321, 29.38786027723006], [70.03952989798648, 29.416366994641123], [70.04009405979309, 29.45223477451526], [70.04122238160767, 29.492018434603153], [70.04178654341428, 29.52933211208733], [70.04291486702755, 29.538658382078722], [70.03783741346592, 29.54896536366067], [70.0316316353917, 29.55240079186308], [70.01696343561412, 29.56221565362955], [70.00962933392668, 29.570557537400475], [70.0107576575399, 29.579880003259575], [70.01301430386707, 29.591654518341386], [70.01865591923536, 29.598031807022323], [70.03275995810566, 29.602446617617375], [70.03727325165931, 29.609804205100033], [70.04065821980106, 29.61814215523634], [70.04291486702755, 29.634325618232765], [70.03952989798648, 29.64854530362294], [70.04404318974144, 29.667174953161634], [70.04855648239578, 29.673057284666015], [70.05927555222502, 29.67795896393511], [70.0620963603588, 29.685311034976337], [70.06604549120652, 29.693152651973378], [70.07732872194305, 29.69805335188073], [70.0891761153855, 29.707854033137153], [70.09707437618158, 29.717653759313578], [70.09876686160146, 29.73969964372361], [70.10045934612197, 29.75831239590042], [70.10102350792863, 29.76810719199335], [70.10271599244913, 29.778880362338896], [70.11794835493271, 29.789162762751346], [70.13148823199634, 29.789162762751346], [70.14615643267331, 29.78426651358876], [70.15292637165476, 29.77398361135465], [70.16138879515682, 29.765658582677474], [70.17154370407872, 29.752924848902694], [70.17944196487485, 29.746557375422583], [70.18790438837686, 29.742148887960866], [70.19693097458486, 29.73725034013114], [70.21047085074923, 29.736760472218066], [70.22175408238508, 29.74018949724757], [70.23416563673482, 29.747537013222654], [70.24544886837066, 29.761250935182545], [70.26011706904757, 29.765658582677474], [70.28155520870598, 29.764189388129807], [70.29340260124911, 29.756843093434043], [70.2967875711895, 29.747537013222654], [70.29904421751667, 29.727452528611366], [70.30186502475112, 29.715693891060255], [70.31089160916048, 29.707854033137153], [70.31596906362142, 29.697563292412042], [70.31991819536847, 29.684820914353793], [70.32161067988903, 29.672076919314406], [70.32612397164405, 29.66521410015065], [70.339663849607, 29.657370304995652], [70.34981875762963, 29.648055003135937], [70.35151124304946, 29.63775813982636], [70.35038291943624, 29.625989007187002], [70.35263956576341, 29.61912304489266], [70.36505112011315, 29.608823224612195], [70.37577018994239, 29.60293714023686], [70.38931006790534, 29.59950343243753], [70.41018404575715, 29.597050712320595], [70.42428808372813, 29.597050712320595], [70.43895628530436, 29.59999396944619], [70.44572622428586, 29.602446617617375], [70.45080367784749, 29.610294691746674], [70.45983026315616, 29.61912304489266], [70.4716776556993, 29.625989007187002], [70.4778834328742, 29.636287072890127], [70.48973082631665, 29.645113148952703], [70.49311579535771, 29.64952589650295], [70.50327070338034, 29.655899524943152], [70.51116896597506, 29.664233659256013], [70.51906722677114, 29.670606355099267], [70.52188803490492, 29.675998321365512], [70.52075971219102, 29.684330790133913], [70.52132387399763, 29.696093100516237], [70.52132387399763, 29.71177403854108], [70.51737474225064, 29.721083437250854], [70.52245219671158, 29.73235155398106], [70.53542791286793, 29.736760472218066], [70.5450186590839, 29.742148887960866], [70.55291692077935, 29.747537013222654], [70.56532847602841, 29.75145546819533], [70.57548338405098, 29.755373769383993], [70.58563829207355, 29.752435057432024], [70.60030649275052, 29.74508790118574], [70.60199897727102, 29.734311096679846], [70.60707643083265, 29.71814372075613], [70.62287295512283, 29.70099365653209], [70.6313353786249, 29.693152651973378], [70.64374693297464, 29.67991956873317], [70.65503016461048, 29.67403763922573], [70.66744171896022, 29.670606355099267], [70.68549488867825, 29.669625966365288], [70.6855169148738, 29.66957094044659], [70.68591491434188, 29.669709268767804], [70.69690257839136, 29.673789900283737], [70.70695920580278, 29.67892964089026], [70.71760739826288, 29.69331951488374], [70.72411462728826, 29.709248757524165], [70.728255590723, 29.716955549059378], [70.73831221813441, 29.723634288691528], [70.74422788031251, 29.73596310361438], [70.75369294087659, 29.74572234051368], [70.7667073989274, 29.750858399295737], [70.77617245949148, 29.758561994640388], [70.7797218569782, 29.7739674082693], [70.79214474908099, 29.779102019142897], [70.79865197810636, 29.7893704521847], [70.80279294244042, 29.810930732367467], [70.80220137559309, 29.836591672867485], [70.79628571251567, 29.85249814557301], [70.79214474908099, 29.865837105997684], [70.79273631502895, 29.878661346643867], [70.79746884531102, 29.886355100707362], [70.80634233992708, 29.890971067161047], [70.8169905323872, 29.895586820475444], [70.82763872574662, 29.90276645640688], [70.82941342448999, 29.909945574328844], [70.83118812323335, 29.922764141152243], [70.82349776141263, 29.933017806426676], [70.8093001714658, 29.936093700963568], [70.80042667684972, 29.945833403688653], [70.79865197810636, 29.960184909905706], [70.78918691754228, 29.971972098233778], [70.7797218569782, 29.983245492185745], [70.7738061948001, 29.997591597074575], [70.7738061948001, 30.018082434956455], [70.77558089264414, 30.029350592156163], [70.78327125536418, 30.040105365070588], [70.79510258061964, 30.051883062853108], [70.80160980874575, 30.066731207079613], [70.80220137559309, 30.08823146740832], [70.80575077307975, 30.106144780856994], [70.80575077307975, 30.128148121039033], [70.80397607523577, 30.147077304174275], [70.80101824369706, 30.167025754634892], [70.78859535159427, 30.177765556535235], [70.77794715913416, 30.183390699920892], [70.76197486864532, 30.204865565193757], [70.76197486864532, 30.22020188660781], [70.76079173584998, 30.23655799425609], [70.76729896487541, 30.262108964756976], [70.77439776074812, 30.27845809816273], [70.77913029103019, 30.296336845269252], [70.78208812256884, 30.310126793216966], [70.7814965557215, 30.32799976667593], [70.77203149605674, 30.345358959248642], [70.76256643549266, 30.358631560498168], [70.76020017080128, 30.370371205266963], [70.7738061948001, 30.37955777097443], [70.78504595410755, 30.397418065791157], [70.796877279363, 30.402010184922176], [70.80515920713174, 30.412724290493657], [70.80634233992708, 30.425987744738677], [70.80160980874575, 30.43567912868889], [70.7838628213122, 30.455059006168256], [70.77676402633881, 30.476984221344765], [70.76729896487541, 30.496355883517253], [70.75724233926258, 30.509098294850503], [70.76434113423602, 30.51776218177929], [70.77203149605674, 30.52744443491281], [70.77617245949148, 30.546806046262077], [70.77439776074812, 30.560560634665592], [70.77321462795277, 30.581443505013794], [70.76907366451803, 30.60028516163095], [70.7667073989274, 30.615559490977773], [70.7667073989274, 30.629013310116193], [70.7667073989274, 30.629813357800288], [70.7708483632614, 30.63999340637065], [70.77498932759545, 30.654752573472535], [70.77617245949148, 30.666965352469106], [70.78267968851685, 30.690368866030383], [70.78090499067281, 30.70257714302079], [70.76966523046605, 30.71274952666937], [70.75724233926258, 30.723429375265482], [70.75132667618522, 30.72648054294274], [70.74600257905581, 30.732074100339503], [70.7436363143645, 30.742243373233123], [70.73831221813441, 30.7473276067837], [70.72943872351834, 30.7529199545923], [70.72115679574961, 30.769695046489232], [70.71997366295426, 30.781385048681102], [70.72352306134025, 30.793581798161483], [70.73594595254372, 30.802220226182556], [70.74777727869849, 30.80526889734182], [70.75191824213323, 30.823558894527423], [70.75191824213323, 30.841845409538053], [70.75191824213323, 30.865206440025247], [70.75132667618522, 30.890592410111708], [70.75191824213323, 30.91343403175523], [70.75546763961995, 30.927643844387944], [70.76079173584998, 30.93677760909941], [70.76789053172274, 30.941344165001283], [70.77498932759545, 30.946417859396718], [70.78267968851685, 30.959100917273588], [70.7797218569782, 30.970767842861733], [70.78090499067281, 31.003731880921634], [70.77794715913416, 31.033643219758858], [70.77143992920941, 31.049355584592604], [70.76374956738869, 31.058477702184234], [70.7566507724153, 31.06759894563487], [70.75310137492858, 31.087358638290596], [70.75310137492858, 31.104075169933196], [70.75014354338987, 31.1207887598934], [70.73476281974837, 31.132435885108066], [70.728255590723, 31.149144480233645], [70.73298812190438, 31.159775688996888], [70.75132667618522, 31.168381032758532], [70.75901703800594, 31.18002231237989], [70.76020017080128, 31.197734556304795], [70.7574599518154, 31.209765892581913], [70.75649056538737, 31.20928228664826], [70.74217808704913, 31.21963964195595], [70.73557232740103, 31.230937280730984], [70.7256636888282, 31.24599869918069], [70.71025025054865, 31.250704900011158], [70.68823105262106, 31.243174866626873], [70.66070705498663, 31.241292264526464], [70.6177696190727, 31.2422335705229], [70.58914466149696, 31.243174866626873], [70.57373122411673, 31.246939957513064], [70.5495101063064, 31.259175469572313], [70.53299570808554, 31.25541086611861], [70.5164813089653, 31.243174866626873], [70.50657267039247, 31.229995862319242], [70.48785635228887, 31.21963964195595], [70.45482755494777, 31.21399031580046], [70.43390931696149, 31.20269065175222], [70.4228997184473, 31.187622331905118], [70.42216899230522, 31.185871878884143], [70.41739491874057, 31.17443558443472], [70.41959683862325, 31.148056581146363], [70.4162939587992, 31.12544016323301], [70.39977956057834, 31.11978521541539], [70.35133732495763, 31.11978521541539], [70.32601524720593, 31.116015063144687], [70.30950084898507, 31.099990246852485], [70.2896835709401, 31.09433378277788], [70.26656341307114, 31.084905596216345], [70.24959919015055, 31.070376013442342], [70.24919077113725, 31.05323721322685], [70.24465495586156, 31.002708670069126], [70.22499975813241, 30.984563681368854], [70.22197588128194, 30.93918611494729], [70.22651169655762, 30.90027390331801], [70.22651169655762, 30.861345868117382], [70.2189520035322, 30.83927962845212], [70.2008087442282, 30.82240202193583], [70.18720129930057, 30.806820058798735], [70.18115354559973, 30.78214344876119], [70.16905803909731, 30.75616122905751], [70.15545059416962, 30.748365195097733], [70.13730733486568, 30.743167488688698], [70.12067601218826, 30.728872350178847], [70.10706856726063, 30.71847455325809], [70.08892530795663, 30.708075635781995], [70.07380592370447, 30.70157574252653], [70.05566266440047, 30.695075412200538], [70.04507909542394, 30.680773142966245], [70.05112684912484, 30.66516825161358], [70.06775817090295, 30.639154498980986], [70.07229398527926, 30.589709093000295], [70.06624623247768, 30.563675056158957], [70.04961491069963, 30.535029545477187], [70.036007465772, 30.527215667169344], [70.02693583612, 30.511586023776033], [70.0208880824191, 30.48943972826089], [70.01181645276716, 30.46598521414637], [69.99972094626469, 30.459469069242175], [69.99367319256385, 30.441221543439553], [69.99064931571343, 30.409932124867737], [69.98006574763622, 30.39167533065205], [69.96343442585811, 30.382545653359273], [69.95889861058248, 30.368197294769402], [69.95932679219777, 30.336780084333498], [69.94136738309828, 30.329296917318914], [69.93579377446315, 30.310586498767975], [69.94446383343922, 30.28599022876608], [69.96366182123614, 30.27422461517392], [69.96977380256934, 30.27252184496675]]]}}, {"type": "Feature", "properties": {"name": "Rahim Yar Khan", "id": "ryk", "shapeName": "Rahim Yar Khan"}, "geometry": {"type": "Polygon", "coordinates": [[[70.11141199147028, 27.833501127874797], [70.12521182746394, 27.852097122084558], [70.15393865574441, 27.877493160081315], [70.19627292895257, 27.912235985202585], [70.21895200443151, 27.932274848105806], [70.24767883271204, 27.961658460269803], [70.27640566099251, 27.989698993413867], [70.32176381105108, 28.00438398173543], [70.36258614583403, 28.015062716970874], [70.37619359076166, 28.020401687088224], [70.39584878939019, 28.031078833221613], [70.44120693944876, 28.032413401957], [70.46237407560318, 28.02974424829847], [70.48354121265692, 28.020401687088224], [70.49866059600976, 28.00838863133032], [70.52133967058938, 27.992369139923937], [70.55006649886991, 27.972341427714753], [70.58030526557559, 27.949638858346702], [70.59391271050322, 27.932274848105806], [70.59996046420412, 27.90555553865721], [70.60298434105454, 27.872147120393322], [70.60298434105454, 27.838728396798103], [70.61054403228133, 27.824020895747765], [70.63171116933506, 27.799949777660174], [70.6392708605618, 27.781224110204562], [70.64531861426269, 27.766508822823937], [70.65741412076511, 27.741086821399733], [70.67555738096843, 27.721012629529298], [70.70277227082369, 27.711643407916995], [70.74359460560663, 27.71030488216462], [70.86152579557904, 27.708966339325173], [70.89176456228478, 27.719674218890134], [70.90839588406283, 27.73841047676217], [70.92805108269135, 27.747777397009315], [70.97189729432472, 27.761157316157266], [71.00515993698156, 27.781224110204562], [71.0338867661614, 27.799949777660174], [71.06599275386253, 27.80657624239973], [71.06374761615962, 27.81981486996034], [71.06189897156037, 27.844336763331], [71.05542871546288, 27.854961195702685], [71.03786659176984, 27.869670230097086], [71.03047201337279, 27.880292180339893], [71.02954769107316, 27.90316668749267], [71.03047201337279, 27.926853045032033], [71.02954769107316, 27.951350713364775], [71.02862336787416, 27.969312136945632], [71.02307743497568, 28.001961613737535], [71.01753150027855, 28.012570563380848], [71.00643963268294, 28.02399441840771], [71.00366666578407, 28.038680450842207], [71.00274234348444, 28.053364478687797], [70.99534776508733, 28.078648937798278], [70.98148293059285, 28.08109550475382], [70.97501267449536, 28.086803945146016], [70.96946674069756, 28.103927444296176], [70.96761809519899, 28.116972086292776], [70.95745055080232, 28.12430900016028], [70.94543436000777, 28.13572097963953], [70.94543436000777, 28.166690223375156], [70.94451003770814, 28.20905466793863], [70.94266139400816, 28.250588096663364], [70.94451003770814, 28.286407865330773], [70.94358571540852, 28.331165633387343], [70.93896410480966, 28.393794850551956], [70.94543436000777, 28.431192063363085], [70.94358571540852, 28.442571202299177], [70.9214019802173, 28.44582215976493], [70.91261130596706, 28.450052156981485], [70.91185410108596, 28.46636200170508], [70.90276764251274, 28.48000707966304], [70.89822441412548, 28.488991900455915], [70.90087463075963, 28.50329948108623], [70.91147549819573, 28.517937787399035], [70.91450431772012, 28.53124357722936], [70.91791174013474, 28.54122181613394], [70.92699819690932, 28.5495362930655], [70.93570605349163, 28.55851519182272], [70.93987067988803, 28.570485865230523], [70.94062788476913, 28.589436645584783], [70.9400363179218, 28.630734184834807], [70.93589535448706, 28.644752543495144], [70.93648692133439, 28.666036097787753], [70.93885318602577, 28.686796377051223], [70.94417728225585, 28.700807238962966], [70.95837487310195, 28.70651483039518], [70.9702061983574, 28.71377858711213], [70.97257246304878, 28.722598185358038], [70.97138933115275, 28.73401067835016], [70.98203752361286, 28.740235148833108], [70.99386884976764, 28.742828568783466], [70.99741824725436, 28.749052514961647], [70.99741824725436, 28.762017877223286], [70.99564354761168, 28.772389008346124], [71.00037607879307, 28.781722143761954], [71.01220740404852, 28.785351471193508], [71.02403872930398, 28.79468344738325], [71.03054595922868, 28.815418182303347], [71.0317290911247, 28.849103321061477], [71.02954769107316, 28.952552058131005], [71.02862336787416, 29.002685596563083], [71.02758812769002, 29.034952263436253], [71.02640499489468, 29.050984853468265], [71.01989776586925, 29.059258762881655], [71.00629174097111, 29.052019127780568], [71.0015592106891, 29.04271027855657], [70.98854475263829, 29.035986699626562], [70.97907969207421, 29.034435041743848], [70.962515837436, 29.035986699626562], [70.94890981163854, 29.04064153208111], [70.93944475197378, 29.054604769494574], [70.92288089643625, 29.06339546892582], [70.91341583497285, 29.072185418322476], [70.91104957028148, 29.09028001171322], [70.91282426992416, 29.111989327545473], [70.91223270307682, 29.13111040622033], [70.9069086068468, 29.149711288245385], [70.90040137782137, 29.164176311387735], [70.89626041348737, 29.18122175927681], [70.87910499200183, 29.184320627894692], [70.87762980257338, 29.18427769695819], [70.86135800366901, 29.183804155337555], [70.83710378541144, 29.182771204827304], [70.83947005190146, 29.173990702808737], [70.84479414813148, 29.165209449856263], [70.84183631659278, 29.148677994194145], [70.8323712560287, 29.13421078749792], [70.8199483639259, 29.1280099332119], [70.80515920713174, 29.111472492561518], [70.79510258061964, 29.10785457303018], [70.7738061948001, 29.105787133269644], [70.76611583297938, 29.0938985490788], [70.76020017080128, 29.086144384855515], [70.76493270018403, 29.075804590609437], [70.76907366451803, 29.062361307928086], [70.77025679641406, 29.041158723196588], [70.76848209857008, 29.03133165673063], [70.76552426703137, 29.018399882348717], [70.75369294087659, 29.012192054719605], [70.74245318246847, 29.00960534910763], [70.70577607300743, 29.00805329552321], [70.69276161495662, 29.008570649416015], [70.6821134215972, 29.01426137136525], [70.6667326979557, 29.027193664655954], [70.6596339029823, 29.04219309643429], [70.64898570962288, 29.056673237180178], [70.63537968562406, 29.057707454835224], [70.6134917338565, 29.04943342131537], [70.60106884175372, 29.037021125024978], [70.60343510734441, 29.025641875472218], [70.60284354049708, 29.00960534910763], [70.59988570895837, 28.993048905782416], [70.58627968495955, 28.984252215967047], [70.57267366006141, 28.983734740665795], [70.55315197298523, 28.983734740665795], [70.54368691242115, 28.980629832201032], [70.54368691242115, 28.963551172348787], [70.53244715311371, 28.956822441202746], [70.52534835903958, 28.952681466076854], [70.51884112911489, 28.946469694021232], [70.50937606855081, 28.94439902029859], [70.49213706587295, 28.94439902029859], [70.48747417998948, 28.939062996360235], [70.4784475946808, 28.93659437982683], [70.46039442406345, 28.92968194056914], [70.43500715355736, 28.91338650928003], [70.41638982203273, 28.911411132218007], [70.39495168327363, 28.909435716485177], [70.376334351749, 28.909435716485177], [70.36223031197937, 28.90844799557857], [70.35715285751843, 28.904003131439424], [70.367307765541, 28.8965946009601], [70.37407770542183, 28.88967949521259], [70.37577018994239, 28.861520383758773], [70.37464186722843, 28.832365197595834], [70.37238522000195, 28.80814535862146], [70.36335863559259, 28.79825809153772], [70.3520754039568, 28.78836988646117], [70.33120142700432, 28.786886575255267], [70.31822571084791, 28.791336446819628], [70.31032744915251, 28.79924686015454], [70.30581415559885, 28.80616798056792], [70.28719682497353, 28.80814535862146], [70.27478526972448, 28.805673629534454], [70.2657586844158, 28.800729995992583], [70.26237371537474, 28.783919888092385], [70.26068123085417, 28.765623456257572], [70.25616793819984, 28.75622674416894], [70.24149973752293, 28.742377416684462], [70.23134482950036, 28.7374307830043], [70.21272749797572, 28.735452064061576], [70.20144426633988, 28.728526252784377], [70.18903271199014, 28.71962096353667], [70.1704153804655, 28.714673253368005], [70.15349053346142, 28.715168034277383], [70.14615643267331, 28.716652366213793], [70.13712984826395, 28.723578963498426], [70.13035990928245, 28.730505103028122], [70.11512754679887, 28.738914797479993], [70.09707437618158, 28.73842012808649], [70.08014953007682, 28.736936107315557], [70.06491716759325, 28.728526252784377], [70.05814722951106, 28.71417846976061], [70.04855648239578, 28.69834414786419], [70.05250561324351, 28.687456662894704], [70.0609680376449, 28.679042829762807], [70.06378884398003, 28.669143338194544], [70.07168710657476, 28.658252816214542], [70.07055878386086, 28.62904083156917], [70.07168710657476, 28.60427854671758], [70.06943046024759, 28.581492090387712], [70.06604549120652, 28.569106074086108], [70.05814722951106, 28.561178257970255], [70.04065821980106, 28.553249846503263], [70.03614492804604, 28.544329668979117], [70.03727325165931, 28.53590436319587], [70.03388828171887, 28.52153022733819], [70.02993915087114, 28.51558173540883], [70.01639927380751, 28.51558173540883], [69.99502883331405, 28.51441182534552], [69.9827526781936, 28.51472909087488], [69.96939333193677, 28.508383612114073], [69.96325525392689, 28.50394154936305], [69.95567292226758, 28.495374187568757], [69.95170122473178, 28.485536728537227], [69.94989590767005, 28.472841877850442], [69.94881271833236, 28.46236747847638], [69.94375782966017, 28.452209492973793], [69.93509230866317, 28.446812666771223], [69.92498253311749, 28.44490783792645], [69.91306744051002, 28.442368013972725], [69.89681958785377, 28.442368013972725], [69.88382130500929, 28.443002975806735], [69.86973983372638, 28.440145617426367], [69.86324069230415, 28.436653186595322], [69.85818580453133, 28.427762842281425], [69.84302114121277, 28.42141213845946], [69.8311060486053, 28.419189302144616], [69.81702457732246, 28.418871749731522], [69.79716608964338, 28.417919088894905], [69.78633418727298, 28.414108358314138], [69.78127930039943, 28.407756836109172], [69.77802972878902, 28.399499286263108], [69.77177459592093, 28.394865622050872], [69.78956151774992, 28.382828856566505], [69.78956151774992, 28.35489119147536], [69.80014508582713, 28.333600414727414], [69.80619283952797, 28.305649795801514], [69.80763980624913, 28.277618958227354], [69.80770477795318, 28.276360317474712], [69.81677640760518, 28.26171255658926], [69.83491966780849, 28.245730885272167], [69.8394554821848, 28.217757196037837], [69.84247935903522, 28.10312185229168], [69.85911068081333, 28.068440502127544], [69.87876587854254, 28.05776706389895], [69.9105165845728, 28.037751512322473], [69.92714790545153, 28.017732234854805], [69.94529116655417, 28.005718881421274], [69.95133891935569, 27.98168815638337], [69.95889861058248, 27.948303264384208], [69.98157768606143, 27.930939040104647], [70.00879257591669, 27.90555553865721], [70.03449552734679, 27.886848095063613], [70.05415072597526, 27.877493160081315], [70.08590143110621, 27.874820173512262], [70.10555662883542, 27.850760323929876], [70.11141199147028, 27.833501127874797]]]}}, {"type": "Feature", "properties": {"name": "Bahawalpur", "id": "bahawalpur", "shapeName": "Bahawalpur"}, "geometry": {"type": "Polygon", "coordinates": [[[71.06599275386253, 27.80657624239973], [71.07924491532066, 27.80931140179979], [71.10948368202634, 27.813323279245992], [71.13216275750528, 27.836054454249734], [71.16693733948671, 27.850760323929876], [71.18961641406634, 27.85744415102681], [71.2818446526087, 27.860117566572512], [71.30452372718833, 27.868137417507853], [71.34383412444532, 27.882838936267945], [71.44815786859084, 27.87882962908418], [71.57667262753978, 27.881502516727835], [71.65529342025519, 27.88952078485636], [71.68250831100983, 27.90956385658677], [71.72333064579271, 27.930939040104647], [71.76112910372524, 27.94563202699652], [71.7959036857066, 27.956316579946247], [71.82765439083755, 27.976347268012034], [71.83521408206428, 28.024405741331975], [71.84579765104081, 28.084448671069367], [71.8624289719196, 28.11379078311819], [71.87906029369765, 28.14979058616666], [71.89569161547576, 28.185778290635653], [71.93046619745712, 28.221753886632598], [71.96524077853917, 28.25239020584337], [72.00303923737096, 28.27103409165005], [72.0438615721539, 28.301656251035183], [72.09073166063769, 28.333600415626734], [72.13004205699536, 28.378838212113862], [72.15272113247437, 28.41075916340469], [72.1602808237011, 28.447988118456976], [72.17237633020352, 28.519749808906624], [72.18598377513115, 28.5463158316104], [72.20412703533447, 28.583497006581638], [72.214710604311, 28.628627908751014], [72.22227029553778, 28.66975976859851], [72.24192549416625, 28.704245012597312], [72.27670007524836, 28.740044586988176], [72.30996271880451, 28.7758318982236], [72.36590443694024, 28.807632540009763], [72.41882227912492, 28.823529221796207], [72.44754910740545, 28.84207228460832], [72.48081175006229, 28.853991079724608], [72.50651470239166, 28.869880682047892], [72.52092832837968, 28.87733868333362], [72.51741775372642, 28.89475720328238], [72.51741775372642, 28.926363805545236], [72.51164073912884, 28.960488116533384], [72.50441947178126, 28.971860389145718], [72.48564417523858, 28.971860389145718], [72.4813114133911, 28.987021474961125], [72.47986716064099, 29.002180338551852], [72.47986716064099, 29.027440170627415], [72.4813114133911, 29.042593105887192], [72.47842290699163, 29.061531143747345], [72.46831313234526, 29.07163000871799], [72.45531484950078, 29.072892298041154], [72.44520507395504, 29.08046570392912], [72.43365104475998, 29.091824770896494], [72.41054298726908, 29.093086812006845], [72.3975447044246, 29.093086812006845], [72.39321194437576, 29.08046570392912], [72.38454642247945, 29.072892298041154], [72.36721537868681, 29.06910538600482], [72.34410732119596, 29.079203509034755], [72.33544180019896, 29.089300642810485], [72.33688605384839, 29.109491939001828], [72.32677627830265, 29.133463958994582], [72.31377799545817, 29.14481717677137], [72.30944523540933, 29.172564204474497], [72.31377799545817, 29.187695785332266], [72.32533202465328, 29.20030373093249], [72.33688605384839, 29.206607123220238], [72.34121881479655, 29.215431220774292], [72.35277284309228, 29.22551497353726], [72.36288261863797, 29.234337441519756], [72.3888791834276, 29.236858006491843], [72.41054298726908, 29.238118266944525], [72.42931828381182, 29.239378511209395], [72.4726458923941, 29.239378511209395], [72.49719820353431, 29.239378511209395], [72.51741775372642, 29.240638739286453], [72.53330454386963, 29.244419331786787], [72.54630282671411, 29.257020298647888], [72.56218961595806, 29.26080028590451], [72.59974020994281, 29.26709995409965], [72.61995976013486, 29.269619712379892], [72.65317759317145, 29.272139408606847], [72.66762012876598, 29.272139408606847], [72.68639542620804, 29.272139408606847], [72.69794945450377, 29.270879568137616], [72.71239199099762, 29.25450022920228], [72.72394602019273, 29.245679498709933], [72.73838855488793, 29.244419331786787], [72.76582937422631, 29.244419331786787], [72.77738340342137, 29.2519800986027], [72.77449489522331, 29.26709995409965], [72.77034237819828, 29.282403002396677], [72.76620141386422, 29.299944669211186], [72.77093394414624, 29.307682681610515], [72.78453996814505, 29.313872669388218], [72.79104719717049, 29.322641175349986], [72.79518816150448, 29.335018960156958], [72.79992069178655, 29.35358282069069], [72.79755442709518, 29.370596720362414], [72.79341346276118, 29.379360347502086], [72.77862430596701, 29.38812322100989], [72.76738454665957, 29.39430832277094], [72.75732792014747, 29.40822342936781], [72.74194719650598, 29.413892000115766], [72.73070743809785, 29.413892000115766], [72.71296044976498, 29.413376688583355], [72.6910724970981, 29.415437919424505], [72.68042430373868, 29.426258694483238], [72.68338213527738, 29.437593508533666], [72.6940303277375, 29.445836214170015], [72.70408695514891, 29.45510845828875], [72.70881948543098, 29.467470133539905], [72.70822791858365, 29.48395002207593], [72.71650984635238, 29.494248591399412], [72.72834117160784, 29.49888260634725], [72.74194719650598, 29.50969448351367], [72.74904599147936, 29.52925589634259], [72.76324358232552, 29.538005831304133], [72.76738454665957, 29.546755007237834], [72.76797611260758, 29.56425108921644], [72.77744117317167, 29.57865735245491], [72.7857231009404, 29.595119135839525], [72.78453996814505, 29.61312113593175], [72.77921587191503, 29.63266252535533], [72.76797611260758, 29.646544893032456], [72.7626520163775, 29.655798741518765], [72.7555532205048, 29.656312820080643], [72.74076406371063, 29.663509633063143], [72.73662310027589, 29.676359803861885], [72.72479177502044, 29.6830412432588], [72.71296044976498, 29.691777841274416], [72.70881948543098, 29.70565205210056], [72.70881948543098, 29.718496835060932], [72.70704478668762, 29.731853666813322], [72.70231225550623, 29.740586018230204], [72.69462189458483, 29.74520871970668], [72.68219900248204, 29.752399165489123], [72.67864960499531, 29.763183867841292], [72.67332550876529, 29.771400003907104], [72.65912791791914, 29.779615466380733], [72.64670502581635, 29.781669226553618], [72.63014117027882, 29.795531006950455], [72.62185924251008, 29.811444015928657], [72.61771827817603, 29.821709129572696], [72.60707008571592, 29.83146001177016], [72.60292912138192, 29.8504458405032], [72.61002791725463, 29.879687214993055], [72.61061948320264, 29.889432435058893], [72.60350252821917, 29.896576611621356], [72.5993797238952, 29.90071518465811], [72.58518213304905, 29.90276645640688], [72.57512550743627, 29.90276645640688], [72.56114975325858, 29.904112579631885], [72.54358762956554, 29.904112579631885], [72.53989034036698, 29.904112579631885], [72.52602550497312, 29.912124847483767], [72.51308499367758, 29.923340938433626], [72.50569041528047, 29.93055061531868], [72.49552286908522, 29.940963671036627], [72.47703642399182, 29.945769328791528], [72.46409591089764, 29.94176462973394], [72.45854997709984, 29.935356776693936], [72.4520797210024, 29.929749565789905], [72.44006353110711, 29.92494313371867], [72.425274374313, 29.92494313371867], [72.40309063912173, 29.921738717068195], [72.3975447044246, 29.915329573501083], [72.39569606072467, 29.910522445354616], [72.39384741612542, 29.90571508518309], [72.37628529153301, 29.90251004979899], [72.3651934239374, 29.90251004979899], [72.34578265564511, 29.90010620513732], [72.33746375494837, 29.89449700942947], [72.33099349885094, 29.881674804848444], [72.3291448542517, 29.87446159003042], [72.31435569745753, 29.871255548304987], [72.30696111906047, 29.871255548304987], [72.30418815216154, 29.86163680889166], [72.30141518436335, 29.852818815036358], [72.29586925146486, 29.84560351469048], [72.28662602756918, 29.842396545764018], [72.28200441697032, 29.829567644831002], [72.2810800946707, 29.816737097239297], [72.28015577237107, 29.805509016527935], [72.27830712687245, 29.794279674967072], [72.26998822617577, 29.783049073456027], [72.25797203717985, 29.775828735108064], [72.25057745878274, 29.772619528668372], [72.24872881328417, 29.756571955931065], [72.24965313648312, 29.745337124908417], [72.24688016868487, 29.727679848446314], [72.24688016868487, 29.707610987756937], [72.24688016868487, 29.694764811746722], [72.24040991258744, 29.68111395024863], [72.23116668959113, 29.680310900627603], [72.21637753279697, 29.6787047833991], [72.20251269830243, 29.67790171399298], [72.18957218610757, 29.677098638291568], [72.17201006151521, 29.677098638291568], [72.1713533233987, 29.676020777576937], [72.16369116081847, 29.663445378301617], [72.16369116081847, 29.657822908600394], [72.15906955021961, 29.648183657449863], [72.15259929412218, 29.63693669906945], [72.14428039342545, 29.630509301063455], [72.12949123663134, 29.627295448726045], [72.11008046743967, 29.62649197012837], [72.09898859984406, 29.622474478214656], [72.0860480876492, 29.601580938309723], [72.07310757545429, 29.59997356292962], [72.052772483963, 29.59997356292962], [72.01949688117617, 29.601580938309723], [71.99454017908607, 29.60077725376732], [71.97882669999228, 29.59675873662644], [71.96311322089849, 29.587113643479938], [71.96126457539987, 29.579075360939214], [71.95664296480106, 29.572644273914136], [71.94462677400645, 29.558976854997923], [71.93168626181159, 29.555760721979766], [71.91319981581893, 29.555760721979766], [71.87345395693461, 29.55495667321196], [71.85958912244013, 29.55093633224601], [71.84295132104671, 29.549328151073382], [71.83648106494923, 29.544503453771426], [71.83093513115142, 29.5348533684882], [71.82446487415467, 29.530832228024963], [71.80782707276126, 29.53002798050693], [71.79118927136784, 29.53002798050693], [71.7791730814726, 29.523593771035735], [71.767156890678, 29.513137308639955], [71.76161095777951, 29.49785284393363], [71.73757857798904, 29.49785284393363], [71.73203264419124, 29.48900288907214], [71.7237137434945, 29.47934751037934], [71.70337865200327, 29.477738190665036], [71.68027059451236, 29.480956804013374], [71.6562382147219, 29.480956804013374], [71.63682744642955, 29.475324164778442], [71.63128151173242, 29.46888647852819], [71.62665990113356, 29.45922918427948], [71.62111396733576, 29.44715627324348], [71.61741667813726, 29.439106867887688], [71.60447616594234, 29.431861857538763], [71.5712005622562, 29.428641686564617], [71.54901682706497, 29.42461633007963], [71.5443952155668, 29.41978569005761], [71.54347089326717, 29.40931851853486], [71.53422767027081, 29.40126611394004], [71.52128715807595, 29.3980449743961], [71.51574122427814, 29.39321307172594], [71.51111961188064, 29.385964788744047], [71.4963304559858, 29.378715988652004], [71.47784400909381, 29.379521436764946], [71.46397917459927, 29.38113231320574], [71.45011434010479, 29.38838094062794], [71.43717382790987, 29.39885026782565], [71.42515763801464, 29.40448715275994], [71.4020495805238, 29.40448715275994], [71.38356313453107, 29.40448715275994], [71.36969830003659, 29.4109289228316], [71.3687696043338, 29.4109289228316], [71.3493632085453, 29.4109289228316], [71.33457405175113, 29.4109289228316], [71.31423896115916, 29.4109289228316], [71.30314709356355, 29.4109289228316], [71.28558496987051, 29.418175426954463], [71.27541742367521, 29.428641686564617], [71.26524987927854, 29.442326706112624], [71.25785529998217, 29.449570970024297], [71.243066143188, 29.455205040080614], [71.23012563099314, 29.457619546205137], [71.21718511879823, 29.464057946517073], [71.20424460660337, 29.47371478211153], [71.18298519371177, 29.474519476592604], [71.16727171461798, 29.472910080435895], [71.15063391322457, 29.465667482968], [71.14323933482751, 29.456009882050466], [71.14139068932889, 29.44635136202578], [71.13214746633258, 29.43427691764566], [71.10811508654206, 29.428641686564617], [71.08408270675159, 29.42461633007963], [71.06097464926069, 29.42461633007963], [71.05450439316326, 29.412539301047957], [71.04362426463369, 29.40827416286773], [71.03601794627127, 29.405292396726793], [71.02677472327491, 29.39643436505395], [71.02492607867566, 29.378715988652004], [71.02492607867566, 29.36582795909311], [71.01938014487786, 29.35696649201003], [70.99812073198626, 29.355355234256706], [70.99349912048808, 29.340047006763996], [70.98795318669028, 29.328765787810937], [70.96946674069756, 29.326348222192735], [70.9519046161052, 29.3255423540964], [70.94820732780602, 29.320707011519403], [70.94173707170853, 29.311035638384055], [70.9306452032136, 29.304587546977757], [70.91493172411981, 29.302169407592146], [70.91031011352095, 29.29249627808082], [70.91045800433346, 29.274663074441378], [70.9098664383855, 29.261245810945468], [70.9069086068468, 29.25350428129758], [70.9009929446687, 29.244729838011665], [70.89330258194866, 29.240600429066603], [70.88797848571858, 29.233373560741313], [70.88679535292323, 29.22356485303561], [70.88502065417993, 29.209624546535622], [70.87762980257338, 29.18427769695819], [70.87910499200183, 29.184320627894692], [70.89626041348737, 29.18122175927681], [70.90040137782137, 29.164176311387735], [70.9069086068468, 29.149711288245385], [70.91223270307682, 29.13111040622033], [70.91282426992416, 29.111989327545473], [70.91104957028148, 29.09028001171322], [70.91341583497285, 29.072185418322476], [70.92288089643625, 29.06339546892582], [70.93944475197378, 29.054604769494574], [70.94890981163854, 29.04064153208111], [70.962515837436, 29.035986699626562], [70.97907969207421, 29.034435041743848], [70.98854475263829, 29.035986699626562], [71.0015592106891, 29.04271027855657], [71.00629174097111, 29.052019127780568], [71.01989776586925, 29.059258762881655], [71.02640499489468, 29.050984853468265], [71.02758812769002, 29.034952263436253], [71.02862336787416, 29.002685596563083], [71.02954769107316, 28.952552058131005], [71.0317290911247, 28.849103321061477], [71.03054595922868, 28.815418182303347], [71.02403872930398, 28.79468344738325], [71.01220740404852, 28.785351471193508], [71.00037607879307, 28.781722143761954], [70.99564354761168, 28.772389008346124], [70.99741824725436, 28.762017877223286], [70.99741824725436, 28.749052514961647], [70.99386884976764, 28.742828568783466], [70.98203752361286, 28.740235148833108], [70.97138933115275, 28.73401067835016], [70.97257246304878, 28.722598185358038], [70.9702061983574, 28.71377858711213], [70.95837487310195, 28.70651483039518], [70.94417728225585, 28.700807238962966], [70.93885318602577, 28.686796377051223], [70.93648692133439, 28.666036097787753], [70.93589535448706, 28.644752543495144], [70.9400363179218, 28.630734184834807], [70.94062788476913, 28.589436645584783], [70.93987067988803, 28.570485865230523], [70.93570605349163, 28.55851519182272], [70.92699819690932, 28.5495362930655], [70.91791174013474, 28.54122181613394], [70.91450431772012, 28.53124357722936], [70.91147549819573, 28.517937787399035], [70.90087463075963, 28.50329948108623], [70.89822441412548, 28.488991900455915], [70.90276764251274, 28.48000707966304], [70.91185410108596, 28.46636200170508], [70.91261130596706, 28.450052156981485], [70.9214019802173, 28.44582215976493], [70.94358571540852, 28.442571202299177], [70.94543436000777, 28.431192063363085], [70.93896410480966, 28.393794850551956], [70.94358571540852, 28.331165633387343], [70.94451003770814, 28.286407865330773], [70.94266139400816, 28.250588096663364], [70.94451003770814, 28.20905466793863], [70.94543436000777, 28.166690223375156], [70.94543436000777, 28.13572097963953], [70.95745055080232, 28.12430900016028], [70.96761809519899, 28.116972086292776], [70.96946674069756, 28.103927444296176], [70.97501267449536, 28.086803945146016], [70.98148293059285, 28.08109550475382], [70.99534776508733, 28.078648937798278], [71.00274234348444, 28.053364478687797], [71.00366666578407, 28.038680450842207], [71.00643963268294, 28.02399441840771], [71.01753150027855, 28.012570563380848], [71.02307743497568, 28.001961613737535], [71.02862336787416, 27.969312136945632], [71.02954769107316, 27.951350713364775], [71.03047201337279, 27.926853045032033], [71.02954769107316, 27.90316668749267], [71.03047201337279, 27.880292180339893], [71.03786659176984, 27.869670230097086], [71.05542871546288, 27.854961195702685], [71.06189897156037, 27.844336763331], [71.06374761615962, 27.81981486996034], [71.06599275386253, 27.80657624239973]]]}}, {"type": "Feature", "properties": {"name": "Muzaffargarh", "id": "muzaffargarh", "shapeName": "Muzaffargarh"}, "geometry": {"type": "Polygon", "coordinates": [[[70.49213706587295, 28.94439902029859], [70.50937606855081, 28.94439902029859], [70.51884112911489, 28.946469694021232], [70.52534835903958, 28.952681466076854], [70.53244715311371, 28.956822441202746], [70.54368691242115, 28.963551172348787], [70.54368691242115, 28.980629832201032], [70.55315197298523, 28.983734740665795], [70.57267366006141, 28.983734740665795], [70.58627968495955, 28.984252215967047], [70.59988570895837, 28.993048905782416], [70.60284354049708, 29.00960534910763], [70.60343510734441, 29.025641875472218], [70.60106884175372, 29.037021125024978], [70.6134917338565, 29.04943342131537], [70.63537968562406, 29.057707454835224], [70.64898570962288, 29.056673237180178], [70.6596339029823, 29.04219309643429], [70.6667326979557, 29.027193664655954], [70.6821134215972, 29.01426137136525], [70.69276161495662, 29.008570649416015], [70.70577607300743, 29.00805329552321], [70.74245318246847, 29.00960534910763], [70.75369294087659, 29.012192054719605], [70.76552426703137, 29.018399882348717], [70.76848209857008, 29.03133165673063], [70.77025679641406, 29.041158723196588], [70.76907366451803, 29.062361307928086], [70.76493270018403, 29.075804590609437], [70.76020017080128, 29.086144384855515], [70.76611583297938, 29.0938985490788], [70.7738061948001, 29.105787133269644], [70.79510258061964, 29.10785457303018], [70.80515920713174, 29.111472492561518], [70.8199483639259, 29.1280099332119], [70.8323712560287, 29.13421078749792], [70.84183631659278, 29.148677994194145], [70.84479414813148, 29.165209449856263], [70.83947005190146, 29.173990702808737], [70.83710378541144, 29.182771204827304], [70.86135800366901, 29.183804155337555], [70.87762980257338, 29.18427769695819], [70.88502065417993, 29.209624546535622], [70.88679535292323, 29.22356485303561], [70.88797848571858, 29.233373560741313], [70.89330258194866, 29.240600429066603], [70.9009929446687, 29.244729838011665], [70.9069086068468, 29.25350428129758], [70.9098664383855, 29.261245810945468], [70.91045800433346, 29.274663074441378], [70.91031011352095, 29.29249627808082], [70.91493172411981, 29.302169407592146], [70.9306452032136, 29.304587546977757], [70.94173707170853, 29.311035638384055], [70.94820732780602, 29.320707011519403], [70.9519046161052, 29.3255423540964], [70.96946674069756, 29.326348222192735], [70.98795318669028, 29.328765787810937], [70.99349912048808, 29.340047006763996], [70.99812073198626, 29.355355234256706], [71.01938014487786, 29.35696649201003], [71.02492607867566, 29.36582795909311], [71.02492607867566, 29.378715988652004], [71.02677472327491, 29.39643436505395], [71.03601794627127, 29.405292396726793], [71.04362426463369, 29.40827416286773], [71.03792870524563, 29.426135035003938], [71.03187106709612, 29.451193614094052], [71.02584250492771, 29.46942815008913], [71.01715827443485, 29.478608524863603], [71.00847404304272, 29.48724811750668], [71.00847404304272, 29.49642687709877], [71.02025978526092, 29.516941097353822], [71.02522220294236, 29.531514464520967], [71.02646280691306, 29.55256117785615], [71.02708310979773, 29.57036651060605], [71.02894401575378, 29.588708117185888], [71.03576734029059, 29.593562690865554], [71.04569217565341, 29.59679894261717], [71.056857614987, 29.60434979440754], [71.0580982189577, 29.617292795925835], [71.0661621474652, 29.619449801866892], [71.07918849455342, 29.622145992743413], [71.09841786239451, 29.62376367345479], [71.11392541742413, 29.62645975011742], [71.13253448327981, 29.641017316196212], [71.14494052748341, 29.6561118278986], [71.1480420392088, 29.66527524865387], [71.16106838449838, 29.671743043306833], [71.16913231300589, 29.683599586451805], [71.16975261499124, 29.697071232851158], [71.1647901973098, 29.71161858263156], [71.15238415310625, 29.71969953350674], [71.14307962152736, 29.729395814265445], [71.1381172029466, 29.744477057370375], [71.1381172029466, 29.759556031485715], [71.14369992351271, 29.771940634952387], [71.15548566483164, 29.777324767224286], [71.16665110416517, 29.78863050349497], [71.17285412671663, 29.80262631165499], [71.17409473068733, 29.8193110639545], [71.16913231300589, 29.829535825917674], [71.15672626880234, 29.836531112520902], [71.14494052748341, 29.845678055897622], [71.14059841178732, 29.854286179463656], [71.141218714672, 29.868810703551162], [71.14866234119415, 29.87795468995705], [71.16230898846908, 29.88602221755133], [71.16727140615052, 29.896777904176986], [71.16851201102054, 29.912909258655418], [71.16975261499124, 29.92688765324266], [71.17967745035412, 29.932800997867787], [71.19146319257231, 29.93710139221554], [71.21813618693551, 29.941401600403594], [71.22868132428374, 29.952151306537644], [71.2224783026316, 29.97203520006451], [71.22433920858765, 30.00695672946955], [71.23550464882055, 30.014476682353063], [71.25101220385017, 30.02038481630626], [71.25659492351696, 30.034348096887186], [71.25225280872019, 30.054215527424674], [71.24232797335736, 30.066026706067703], [71.24294827534271, 30.08052031595986], [71.25039190186482, 30.096621837228042], [71.25969643434303, 30.10842795268792], [71.27768519821336, 30.110574368212554], [71.28512882473552, 30.121305743465314], [71.28636942870622, 30.143837834648423], [71.2869897315909, 30.157247352283548], [71.29567396208375, 30.166901076223724], [71.3080800062873, 30.176017613522106], [71.31304242306942, 30.185669499248036], [71.31862514273621, 30.19103124919286], [71.33041088495446, 30.197464964036897], [71.33723420949121, 30.208722952602216], [71.34343723114335, 30.218907642573697], [71.3539823693909, 30.224267582183245], [71.36514780782511, 30.2328428777966], [71.36700871468048, 30.244096818513412], [71.36638841269513, 30.270886728339917], [71.36762901666583, 30.286957165440867], [71.37011022550655, 30.305702682732658], [71.37631324805801, 30.31373537868484], [71.39244110507298, 30.326050899829227], [71.4017456384505, 30.33140499204677], [71.41291107778409, 30.338900228862542], [71.42221561026224, 30.350677298918242], [71.42531712108831, 30.356565302446825], [71.4352419564512, 30.35870630675072], [71.44454648982872, 30.35924154995763], [71.45136981436548, 30.365664246307972], [71.4550916271769, 30.376902950710644], [71.45757283601762, 30.390815746949215], [71.45460734855033, 30.393126034239117], [71.43834346817658, 30.405796542076814], [71.42779832992903, 30.405796542076814], [71.4172531925808, 30.41168122530837], [71.41601258861016, 30.42505418730093], [71.42159530827689, 30.437890505842233], [71.42593742397298, 30.44858614833214], [71.4340013524805, 30.457141816241858], [71.43958407214728, 30.46623139096596], [71.44826830353941, 30.473716286477497], [71.45757283601762, 30.491356977642454], [71.45447132519155, 30.50418456286735], [71.45447132519155, 30.52128537751821], [71.45447132519155, 30.528766038122228], [71.46377585856908, 30.53517757478528], [71.47335177316586, 30.543792409991795], [71.4814420643998, 30.55020028371615], [71.49017591948314, 30.553960940045386], [71.49007562169265, 30.55537155545295], [71.48898493920365, 30.570711181875595], [71.47231121618972, 30.579256110081474], [71.46040141429387, 30.579256110081474], [71.44333069725394, 30.577205395912358], [71.43142089535809, 30.57652181403057], [71.41435017831816, 30.582673870202996], [71.39847044245698, 30.599419153171425], [71.38536966028164, 30.602494502719196], [71.3714748909535, 30.606936503416932], [71.36035907531112, 30.618894720315154], [71.3471590448541, 30.6286310343948], [71.34405753402802, 30.644642579391586], [71.32979058296911, 30.65051281501445], [71.31614393389549, 30.65798350843221], [71.31428302793944, 30.669722002968115], [71.30870030827265, 30.67399019259335], [71.29443335811305, 30.67612421725886], [71.2882303355616, 30.684659842877522], [71.28512882473552, 30.6953283141504], [71.27086187367661, 30.69959537242852], [71.2640385491398, 30.70599560551284], [71.25721522640163, 30.717728265247274], [71.24667008815408, 30.724660529160133], [71.23302343997983, 30.725193758784997], [71.22185799974693, 30.727326651204066], [71.21007225842806, 30.73319186141532], [71.2001474239645, 30.74652055697817], [71.18836168174624, 30.749186075576972], [71.17223382383196, 30.75238459897014], [71.156105966817, 30.75078535076335], [71.1492826431795, 30.741722439139323], [71.14307962152736, 30.729992700402875], [71.12695176361308, 30.727326651204066], [71.1182675322209, 30.721461084861232], [71.12198934593164, 30.702795542480374], [71.11950813709092, 30.68305947141755], [71.1170269282502, 30.676657716680324], [71.10834269685802, 30.669188465775107], [71.09779756040916, 30.6558490835684], [71.08787272504628, 30.65478185270041], [71.07918849455342, 30.64997917170149], [71.07422607687198, 30.642507860449427], [71.0661621474652, 30.62969855394516], [71.0525154992909, 30.6286310343948], [71.02646280691306, 30.626495962019078], [70.99234618692702, 30.6286310343948], [70.97063560934595, 30.632367299311454], [70.95388744944631, 30.639305692104074], [70.94272201011273, 30.648911876981572], [70.93155657077915, 30.652113726067682], [70.90798508724203, 30.65424823366908], [70.89433843816846, 30.65424823366908], [70.87076695553066, 30.65424823366908], [70.8589812133124, 30.651046455629455], [70.85029698192022, 30.647310912868363], [70.84533456423878, 30.637704567911555], [70.84347365828273, 30.631833556173717], [70.83603003176063, 30.6286310343948], [70.81680066391954, 30.627563504052546], [70.7988119000492, 30.6286310343948], [70.77648102048278, 30.6286310343948], [70.7667073989274, 30.629013310116193], [70.7667073989274, 30.615559490977773], [70.76907366451803, 30.60028516163095], [70.77321462795277, 30.581443505013794], [70.77439776074812, 30.560560634665592], [70.77617245949148, 30.546806046262077], [70.77203149605674, 30.52744443491281], [70.76434113423602, 30.51776218177929], [70.75724233926258, 30.509098294850503], [70.76729896487541, 30.496355883517253], [70.77676402633881, 30.476984221344765], [70.7838628213122, 30.455059006168256], [70.80160980874575, 30.43567912868889], [70.80634233992708, 30.425987744738677], [70.80515920713174, 30.412724290493657], [70.796877279363, 30.402010184922176], [70.78504595410755, 30.397418065791157], [70.7738061948001, 30.37955777097443], [70.76020017080128, 30.370371205266963], [70.76256643549266, 30.358631560498168], [70.77203149605674, 30.345358959248642], [70.7814965557215, 30.32799976667593], [70.78208812256884, 30.310126793216966], [70.77913029103019, 30.296336845269252], [70.77439776074812, 30.27845809816273], [70.76729896487541, 30.262108964756976], [70.76079173584998, 30.23655799425609], [70.76197486864532, 30.22020188660781], [70.76197486864532, 30.204865565193757], [70.77794715913416, 30.183390699920892], [70.78859535159427, 30.177765556535235], [70.80101824369706, 30.167025754634892], [70.80397607523577, 30.147077304174275], [70.80575077307975, 30.128148121039033], [70.80575077307975, 30.106144780856994], [70.80220137559309, 30.08823146740832], [70.80160980874575, 30.066731207079613], [70.79510258061964, 30.051883062853108], [70.78327125536418, 30.040105365070588], [70.77558089264414, 30.029350592156163], [70.7738061948001, 30.018082434956455], [70.7738061948001, 29.997591597074575], [70.7797218569782, 29.983245492185745], [70.78918691754228, 29.971972098233778], [70.79865197810636, 29.960184909905706], [70.80042667684972, 29.945833403688653], [70.8093001714658, 29.936093700963568], [70.82349776141263, 29.933017806426676], [70.83118812323335, 29.922764141152243], [70.82941342448999, 29.909945574328844], [70.82763872574662, 29.90276645640688], [70.8169905323872, 29.895586820475444], [70.80634233992708, 29.890971067161047], [70.79746884531102, 29.886355100707362], [70.79273631502895, 29.878661346643867], [70.79214474908099, 29.865837105997684], [70.79628571251567, 29.85249814557301], [70.80220137559309, 29.836591672867485], [70.80279294244042, 29.810930732367467], [70.79865197810636, 29.7893704521847], [70.79214474908099, 29.779102019142897], [70.7797218569782, 29.7739674082693], [70.77617245949148, 29.758561994640388], [70.7667073989274, 29.750858399295737], [70.75369294087659, 29.74572234051368], [70.74422788031251, 29.73596310361438], [70.73831221813441, 29.723634288691528], [70.728255590723, 29.716955549059378], [70.72411462728826, 29.709248757524165], [70.71760739826288, 29.69331951488374], [70.70695920580278, 29.67892964089026], [70.69690257839136, 29.673789900283737], [70.68591491434188, 29.669709268767804], [70.6855169148738, 29.66957094044659], [70.69000818133259, 29.65835081244012], [70.68775153500542, 29.639719528833268], [70.6736474952358, 29.6264794155926], [70.66180010269267, 29.615199427811376], [70.661235940886, 29.59999396944619], [70.6533376791906, 29.589201607568214], [70.63697699489245, 29.57791744963066], [70.62907873229773, 29.569085489303916], [70.62851457049106, 29.55436384011915], [70.62851457049106, 29.52933211208733], [70.63472034856528, 29.515586568165645], [70.6403619630342, 29.493982655575167], [70.64656774110841, 29.47974119220231], [70.64092612484086, 29.469918328268307], [70.6318995404315, 29.46304175667177], [70.63246370133879, 29.454199765306953], [70.63077121681823, 29.43454813698696], [70.6240012787361, 29.417349842121553], [70.61497469252811, 29.4065379946328], [70.60538394631214, 29.39277579886408], [70.60369146179158, 29.380486550513922], [70.59635736100347, 29.369670782880405], [70.58056083851193, 29.359837270973344], [70.57548338405098, 29.35492015843863], [70.57435506043777, 29.345085221106103], [70.58281748393978, 29.334265695205715], [70.59466487648291, 29.325904365394194], [70.60425562269887, 29.31901804964332], [70.60369146179158, 29.302292204621608], [70.60199897727102, 29.2860556762285], [70.59635736100347, 29.268340155174087], [70.58845910020739, 29.258989059397607], [70.57548338405098, 29.25209823084873], [70.56645679874231, 29.24865264210581], [70.54840362812502, 29.23142296000168], [70.54219785095012, 29.220099018754752], [70.53655623558188, 29.205819219981095], [70.52922213569309, 29.193014951478858], [70.53655623558188, 29.179716518102907], [70.5444544981766, 29.16986471578406], [70.55235275987201, 29.15705595876551], [70.55348108258596, 29.13931811833652], [70.54671114450377, 29.118620101836257], [70.5450186590839, 29.10777662159387], [70.54332617456333, 29.094467151737717], [70.53937704371566, 29.08312809828317], [70.53035045840699, 29.075239323535982], [70.51737474225064, 29.06537750816551], [70.51681058044397, 29.05304890997928], [70.51568225773008, 29.032826820101718], [70.51568225773008, 29.010133904955808], [70.50496318790084, 29.000265865377457], [70.4919874717445, 28.99237075490646], [70.48973082631665, 28.98644902680121], [70.49029498812325, 28.973617452183703], [70.49480827987827, 28.958809811623553], [70.49480827987827, 28.947455852805433], [70.49213706587295, 28.94439902029859]]]}}, {"type": "Feature", "properties": {"name": "Multan", "id": "multan", "shapeName": "Multan"}, "geometry": {"type": "Polygon", "coordinates": [[[71.3687696043338, 29.4109289228316], [71.36964499901757, 29.431516556543897], [71.38224488759153, 29.44164570618443], [71.39096788785781, 29.45514966702359], [71.38999866510636, 29.47202709097752], [71.37933722113593, 29.481308476704896], [71.36673733346123, 29.49649436492308], [71.35704511134287, 29.51758210083335], [71.35607588859142, 29.535292403121957], [71.36382966610626, 29.547097548213344], [71.38127566573945, 29.55805823440005], [71.39387555341409, 29.574075560238953], [71.3977524426212, 29.593461555806186], [71.40938310934308, 29.60778794126054], [71.42004455331352, 29.617899458793033], [71.42392144252062, 29.638961861700636], [71.42392144252062, 29.677705172555704], [71.42392144252062, 29.714750028291235], [71.41810610870999, 29.740841608253675], [71.41325999765081, 29.76019549082929], [71.41132155304729, 29.780386863463036], [71.42295221886985, 29.797209896419645], [71.43555210834319, 29.806461360803212], [71.44718277506507, 29.814030101907747], [71.46462877379895, 29.819916506441643], [71.48304399528422, 29.834210614328413], [71.4898285500476, 29.845140023893066], [71.5072745496808, 29.846821364914092], [71.51115143888785, 29.86279269672565], [71.51115143888785, 29.876240256582605], [71.51599754994703, 29.892206878644572], [71.5276282157696, 29.895567947302993], [71.54022810434361, 29.89808867505235], [71.54798188185839, 29.915731976949246], [71.55767410397675, 29.922452413648045], [71.5644586587402, 29.9300123620809], [71.56639710334372, 29.94765000814141], [71.5712432144029, 29.961925812126594], [71.58190465837333, 29.966963841208383], [71.59838143525508, 29.972001616681325], [71.60334385293652, 29.98976612740489], [71.6132686882994, 29.99245235559181], [71.61644588786748, 29.996304579992398], [71.62257322167687, 30.00373371933574], [71.62691533737296, 30.013402437672426], [71.64118228753262, 30.016625135741492], [71.65172742488079, 30.018236444756155], [71.66537407305509, 30.02253314109163], [71.67467860643262, 30.039718065736224], [71.6864643477515, 30.048846344583183], [71.69142676543294, 30.05958441978521], [71.70259220476652, 30.0638793237718], [71.7187200626808, 30.066563543772588], [71.73174640886975, 30.06817404159881], [71.73919003449254, 30.072468572366745], [71.74353215018863, 30.07891001958177], [71.74229154531861, 30.090181542943924], [71.74291184820328, 30.098768508160163], [71.75035547472544, 30.107891341612174], [71.76152091405902, 30.113257321068545], [71.76896454058112, 30.122378816329388], [71.76896454058112, 30.132572432072152], [71.77392695826256, 30.142228570692055], [71.78881421040757, 30.151347389570446], [71.7943969300743, 30.15778369536133], [71.79935934775574, 30.174408873870505], [71.79811874378504, 30.191567407909588], [71.8055623703072, 30.21140323627037], [71.80370146345183, 30.227483405834562], [71.79253602411825, 30.235522504060384], [71.77640816710328, 30.23605842085948], [71.76586302975505, 30.23605842085948], [71.74849456787007, 30.239809754816406], [71.73981033647789, 30.24838369515146], [71.73484791879645, 30.26177897831724], [71.71685915582543, 30.262850522333792], [71.6988703919551, 30.264993575293317], [71.6864643477515, 30.274636732199497], [71.679641024114, 30.2832076319267], [71.66723497991046, 30.28481459271933], [71.65544923769221, 30.289635315917167], [71.65110712289544, 30.300347185774058], [71.64552440232939, 30.307844799497957], [71.63808077580723, 30.31373537868484], [71.62691533737296, 30.320161061683677], [71.62629503538761, 30.3324757752369], [71.6207123148215, 30.346930202566853], [71.60582506177724, 30.355494781858738], [71.59341901757364, 30.360847264289873], [71.58287388022546, 30.36673465448075], [71.57356934774725, 30.377973236575656], [71.56302421039902, 30.386535097217006], [71.55371967702155, 30.386535097217006], [71.54565574851404, 30.391350814788325], [71.54255423768797, 30.40098153586922], [71.53449030918046, 30.407936468093567], [71.52208426497691, 30.40900641311555], [71.49851278143979, 30.410611309064734], [71.4817646215401, 30.410611309064734], [71.47370069303264, 30.407401490186658], [71.46811797426517, 30.401516548849713], [71.45460734855033, 30.393126034239117], [71.45757283601762, 30.390815746949215], [71.4550916271769, 30.376902950710644], [71.45136981436548, 30.365664246307972], [71.44454648982872, 30.35924154995763], [71.4352419564512, 30.35870630675072], [71.42531712108831, 30.356565302446825], [71.42221561026224, 30.350677298918242], [71.41291107778409, 30.338900228862542], [71.4017456384505, 30.33140499204677], [71.39244110507298, 30.326050899829227], [71.37631324805801, 30.31373537868484], [71.37011022550655, 30.305702682732658], [71.36762901666583, 30.286957165440867], [71.36638841269513, 30.270886728339917], [71.36700871468048, 30.244096818513412], [71.36514780782511, 30.2328428777966], [71.3539823693909, 30.224267582183245], [71.34343723114335, 30.218907642573697], [71.33723420949121, 30.208722952602216], [71.33041088495446, 30.197464964036897], [71.31862514273621, 30.19103124919286], [71.31304242306942, 30.185669499248036], [71.3080800062873, 30.176017613522106], [71.29567396208375, 30.166901076223724], [71.2869897315909, 30.157247352283548], [71.28636942870622, 30.143837834648423], [71.28512882473552, 30.121305743465314], [71.27768519821336, 30.110574368212554], [71.25969643434303, 30.10842795268792], [71.25039190186482, 30.096621837228042], [71.24294827534271, 30.08052031595986], [71.24232797335736, 30.066026706067703], [71.25225280872019, 30.054215527424674], [71.25659492351696, 30.034348096887186], [71.25101220385017, 30.02038481630626], [71.23550464882055, 30.014476682353063], [71.22433920858765, 30.00695672946955], [71.2224783026316, 29.97203520006451], [71.22868132428374, 29.952151306537644], [71.21813618693551, 29.941401600403594], [71.19146319257231, 29.93710139221554], [71.17967745035412, 29.932800997867787], [71.16975261499124, 29.92688765324266], [71.16851201102054, 29.912909258655418], [71.16727140615052, 29.896777904176986], [71.16230898846908, 29.88602221755133], [71.14866234119415, 29.87795468995705], [71.141218714672, 29.868810703551162], [71.14059841178732, 29.854286179463656], [71.14494052748341, 29.845678055897622], [71.15672626880234, 29.836531112520902], [71.16913231300589, 29.829535825917674], [71.17409473068733, 29.8193110639545], [71.17285412671663, 29.80262631165499], [71.16665110416517, 29.78863050349497], [71.15548566483164, 29.777324767224286], [71.14369992351271, 29.771940634952387], [71.1381172029466, 29.759556031485715], [71.1381172029466, 29.744477057370375], [71.14307962152736, 29.729395814265445], [71.15238415310625, 29.71969953350674], [71.1647901973098, 29.71161858263156], [71.16975261499124, 29.697071232851158], [71.16913231300589, 29.683599586451805], [71.16106838449838, 29.671743043306833], [71.1480420392088, 29.66527524865387], [71.14494052748341, 29.6561118278986], [71.13253448327981, 29.641017316196212], [71.11392541742413, 29.62645975011742], [71.09841786239451, 29.62376367345479], [71.07918849455342, 29.622145992743413], [71.0661621474652, 29.619449801866892], [71.0580982189577, 29.617292795925835], [71.056857614987, 29.60434979440754], [71.04569217565341, 29.59679894261717], [71.03576734029059, 29.593562690865554], [71.02894401575378, 29.588708117185888], [71.02708310979773, 29.57036651060605], [71.02646280691306, 29.55256117785615], [71.02522220294236, 29.531514464520967], [71.02025978526092, 29.516941097353822], [71.00847404304272, 29.49642687709877], [71.00847404304272, 29.48724811750668], [71.01715827443485, 29.478608524863603], [71.02584250492771, 29.46942815008913], [71.03187106709612, 29.451193614094052], [71.03792870524563, 29.426135035003938], [71.04362426463369, 29.40827416286773], [71.05450439316326, 29.412539301047957], [71.06097464926069, 29.42461633007963], [71.08408270675159, 29.42461633007963], [71.10811508654206, 29.428641686564617], [71.13214746633258, 29.43427691764566], [71.14139068932889, 29.44635136202578], [71.14323933482751, 29.456009882050466], [71.15063391322457, 29.465667482968], [71.16727171461798, 29.472910080435895], [71.18298519371177, 29.474519476592604], [71.20424460660337, 29.47371478211153], [71.21718511879823, 29.464057946517073], [71.23012563099314, 29.457619546205137], [71.243066143188, 29.455205040080614], [71.25785529998217, 29.449570970024297], [71.26524987927854, 29.442326706112624], [71.27541742367521, 29.428641686564617], [71.28558496987051, 29.418175426954463], [71.30314709356355, 29.4109289228316], [71.31423896115916, 29.4109289228316], [71.33457405175113, 29.4109289228316], [71.3493632085453, 29.4109289228316], [71.3687696043338, 29.4109289228316]]]}}, {"type": "Feature", "properties": {"name": "Lodhran", "id": "lodhran", "shapeName": "Lodhran"}, "geometry": {"type": "Polygon", "coordinates": [[[72.1713533233987, 29.676020777576937], [72.1624687483341, 29.688651665641885], [72.1537457489672, 29.70464824052391], [72.13242286102627, 29.70464824052391], [72.1159460832452, 29.715591798222988], [72.10334619467119, 29.72737583262864], [72.09074630699655, 29.72990080337945], [72.07911564027461, 29.74420776887348], [72.07523875196688, 29.757671283602917], [72.05294664127456, 29.76945037623392], [72.04685992624468, 29.78324697826548], [72.03941629972252, 29.795090350839075], [72.02825086038894, 29.79885840229349], [72.02204783783748, 29.80800879457024], [72.02018693188148, 29.82523079016886], [72.02204783783748, 29.845140023893066], [72.01956662899681, 29.860741784705624], [72.00902149164858, 29.87150019807575], [71.99413423950358, 29.87311386061623], [71.97862668447397, 29.87472749707638], [71.96560033828501, 29.885484402283396], [71.96063792060363, 29.89624014826427], [71.95009278235608, 29.89946664506965], [71.93892734392182, 29.903768478332665], [71.93520553021108, 29.912909258655418], [71.93830704193647, 29.923662044068124], [71.93272432137042, 29.937638927794353], [71.92155888203683, 29.943551634800144], [71.90915283783323, 29.944626634012025], [71.90667162899251, 29.952151306537644], [71.90232951329648, 29.96612418828073], [71.88806256313683, 29.969348420593178], [71.86200987075898, 29.970423141015203], [71.8520850353961, 29.96988578170351], [71.844641408874, 29.957525724332754], [71.83347596954042, 29.948389041321263], [71.82355113417754, 29.947851563299082], [71.81052478798864, 29.953226213119308], [71.79414264586649, 29.968397874062703], [71.79253602411825, 29.96988578170351], [71.7590397052183, 29.973647233932752], [71.72616368920296, 29.97257254768499], [71.71065613417329, 29.97257254768499], [71.70259220476652, 29.967198943776282], [71.69638918311438, 29.960212824862026], [71.67405830444727, 29.952688761177455], [71.65110712289544, 29.958063150194278], [71.6473853091847, 29.965586805586668], [71.64366349637334, 29.974721907590038], [71.63311835812578, 29.983856170525883], [71.61644588786748, 29.996304579992398], [71.6132686882994, 29.99245235559181], [71.60334385293652, 29.98976612740489], [71.59838143525508, 29.972001616681325], [71.58190465837333, 29.966963841208383], [71.5712432144029, 29.961925812126594], [71.56639710334372, 29.94765000814141], [71.5644586587402, 29.9300123620809], [71.55767410397675, 29.922452413648045], [71.54798188185839, 29.915731976949246], [71.54022810434361, 29.89808867505235], [71.5276282157696, 29.895567947302993], [71.51599754994703, 29.892206878644572], [71.51115143888785, 29.876240256582605], [71.51115143888785, 29.86279269672565], [71.5072745496808, 29.846821364914092], [71.4898285500476, 29.845140023893066], [71.48304399528422, 29.834210614328413], [71.46462877379895, 29.819916506441643], [71.44718277506507, 29.814030101907747], [71.43555210834319, 29.806461360803212], [71.42295221886985, 29.797209896419645], [71.41132155304729, 29.780386863463036], [71.41325999765081, 29.76019549082929], [71.41810610870999, 29.740841608253675], [71.42392144252062, 29.714750028291235], [71.42392144252062, 29.677705172555704], [71.42392144252062, 29.638961861700636], [71.42004455331352, 29.617899458793033], [71.40938310934308, 29.60778794126054], [71.3977524426212, 29.593461555806186], [71.39387555341409, 29.574075560238953], [71.38127566573945, 29.55805823440005], [71.36382966610626, 29.547097548213344], [71.35607588859142, 29.535292403121957], [71.35704511134287, 29.51758210083335], [71.36673733346123, 29.49649436492308], [71.37933722113593, 29.481308476704896], [71.38999866510636, 29.47202709097752], [71.39096788785781, 29.45514966702359], [71.38224488759153, 29.44164570618443], [71.36964499901757, 29.431516556543897], [71.3687696043338, 29.4109289228316], [71.36969830003659, 29.4109289228316], [71.38356313453107, 29.40448715275994], [71.4020495805238, 29.40448715275994], [71.42515763801464, 29.40448715275994], [71.43717382790987, 29.39885026782565], [71.45011434010479, 29.38838094062794], [71.46397917459927, 29.38113231320574], [71.47784400909381, 29.379521436764946], [71.4963304559858, 29.378715988652004], [71.51111961188064, 29.385964788744047], [71.51574122427814, 29.39321307172594], [71.52128715807595, 29.3980449743961], [71.53422767027081, 29.40126611394004], [71.54347089326717, 29.40931851853486], [71.5443952155668, 29.41978569005761], [71.54901682706497, 29.42461633007963], [71.5712005622562, 29.428641686564617], [71.60447616594234, 29.431861857538763], [71.61741667813726, 29.439106867887688], [71.62111396733576, 29.44715627324348], [71.62665990113356, 29.45922918427948], [71.63128151173242, 29.46888647852819], [71.63682744642955, 29.475324164778442], [71.6562382147219, 29.480956804013374], [71.68027059451236, 29.480956804013374], [71.70337865200327, 29.477738190665036], [71.7237137434945, 29.47934751037934], [71.73203264419124, 29.48900288907214], [71.73757857798904, 29.49785284393363], [71.76161095777951, 29.49785284393363], [71.767156890678, 29.513137308639955], [71.7791730814726, 29.523593771035735], [71.79118927136784, 29.53002798050693], [71.80782707276126, 29.53002798050693], [71.82446487415467, 29.530832228024963], [71.83093513115142, 29.5348533684882], [71.83648106494923, 29.544503453771426], [71.84295132104671, 29.549328151073382], [71.85958912244013, 29.55093633224601], [71.87345395693461, 29.55495667321196], [71.91319981581893, 29.555760721979766], [71.93168626181159, 29.555760721979766], [71.94462677400645, 29.558976854997923], [71.95664296480106, 29.572644273914136], [71.96126457539987, 29.579075360939214], [71.96311322089849, 29.587113643479938], [71.97882669999228, 29.59675873662644], [71.99454017908607, 29.60077725376732], [72.01949688117617, 29.601580938309723], [72.052772483963, 29.59997356292962], [72.07310757545429, 29.59997356292962], [72.0860480876492, 29.601580938309723], [72.09898859984406, 29.622474478214656], [72.11008046743967, 29.62649197012837], [72.12949123663134, 29.627295448726045], [72.14428039342545, 29.630509301063455], [72.15259929412218, 29.63693669906945], [72.15906955021961, 29.648183657449863], [72.16369116081847, 29.657822908600394], [72.16369116081847, 29.663445378301617], [72.1713533233987, 29.676020777576937]]]}}, {"type": "Feature", "properties": {"name": "Khanewal", "id": "khanewal", "shapeName": "Khanewal"}, "geometry": {"type": "Polygon", "coordinates": [[[71.45460734855033, 30.393126034239117], [71.46811797426517, 30.401516548849713], [71.47370069303264, 30.407401490186658], [71.4817646215401, 30.410611309064734], [71.49851278143979, 30.410611309064734], [71.52208426497691, 30.40900641311555], [71.53449030918046, 30.407936468093567], [71.54255423768797, 30.40098153586922], [71.54565574851404, 30.391350814788325], [71.55371967702155, 30.386535097217006], [71.56302421039902, 30.386535097217006], [71.57356934774725, 30.377973236575656], [71.58287388022546, 30.36673465448075], [71.59341901757364, 30.360847264289873], [71.60582506177724, 30.355494781858738], [71.6207123148215, 30.346930202566853], [71.62629503538761, 30.3324757752369], [71.62691533737296, 30.320161061683677], [71.63808077580723, 30.31373537868484], [71.64552440232939, 30.307844799497957], [71.65110712289544, 30.300347185774058], [71.65544923769221, 30.289635315917167], [71.66723497991046, 30.28481459271933], [71.679641024114, 30.2832076319267], [71.6864643477515, 30.274636732199497], [71.6988703919551, 30.264993575293317], [71.71685915582543, 30.262850522333792], [71.73484791879645, 30.26177897831724], [71.73981033647789, 30.24838369515146], [71.74849456787007, 30.239809754816406], [71.76586302975505, 30.23605842085948], [71.77640816710328, 30.23605842085948], [71.79253602411825, 30.235522504060384], [71.80370146345183, 30.227483405834562], [71.8055623703072, 30.21140323627037], [71.79811874378504, 30.191567407909588], [71.79935934775574, 30.174408873870505], [71.7943969300743, 30.15778369536133], [71.78881421040757, 30.151347389570446], [71.77392695826256, 30.142228570692055], [71.76896454058112, 30.132572432072152], [71.76896454058112, 30.122378816329388], [71.76152091405902, 30.113257321068545], [71.75035547472544, 30.107891341612174], [71.74291184820328, 30.098768508160163], [71.74229154531861, 30.090181542943924], [71.74353215018863, 30.07891001958177], [71.73919003449254, 30.072468572366745], [71.73174640886975, 30.06817404159881], [71.7187200626808, 30.066563543772588], [71.70259220476652, 30.0638793237718], [71.69142676543294, 30.05958441978521], [71.6864643477515, 30.048846344583183], [71.67467860643262, 30.039718065736224], [71.66537407305509, 30.02253314109163], [71.65172742488079, 30.018236444756155], [71.64118228753262, 30.016625135741492], [71.62691533737296, 30.013402437672426], [71.62257322167687, 30.00373371933574], [71.61644588786748, 29.996304579992398], [71.63311835812578, 29.983856170525883], [71.64366349637334, 29.974721907590038], [71.6473853091847, 29.965586805586668], [71.65110712289544, 29.958063150194278], [71.67405830444727, 29.952688761177455], [71.69638918311438, 29.960212824862026], [71.70259220476652, 29.967198943776282], [71.71065613417329, 29.97257254768499], [71.72616368920296, 29.97257254768499], [71.7590397052183, 29.973647233932752], [71.79253602411825, 29.96988578170351], [71.79414264586649, 29.968397874062703], [71.79664794934342, 29.98648379349231], [71.80119117773074, 30.000911399441577], [71.8223929135022, 30.0166482141438], [71.84813787766097, 30.017959503028692], [71.89054134920394, 30.014025585112734], [71.90871426545107, 30.019270773927133], [71.92537277103662, 30.037626749874676], [71.93748804823491, 30.048114352195626], [71.9511177351954, 30.0651543367033], [71.97080506120466, 30.066464983472258], [71.99655002536343, 30.069086225748777], [72.0132085318483, 30.073017956513524], [72.02229498952221, 30.087432970155476], [72.0238093992844, 30.108396510590524], [72.02835262857099, 30.11756666187199], [72.04349672529372, 30.129355604777402], [72.05864082111708, 30.129355604777402], [72.07832814712634, 30.118876614364297], [72.09044342432463, 30.111016640405694], [72.10255870242224, 30.093984553744235], [72.11770279914492, 30.092674272100055], [72.13890453401712, 30.093984553744235], [72.15859186002638, 30.097915296154042], [72.17222154698686, 30.10053570385969], [72.18433682418515, 30.111016640405694], [72.19190887299612, 30.125426113324522], [72.19342328185905, 30.146381593136084], [72.20402415019441, 30.162095282671203], [72.22371147620373, 30.17126044541328], [72.228254704591, 30.186970169837537], [72.25097084922538, 30.192206187365684], [72.26914376637177, 30.192206187365684], [72.29337432076835, 30.200059692500872], [72.30094636868, 30.211838775239357], [72.3100328263539, 30.227542027242805], [72.32063369468932, 30.235392711204724], [72.34334983932371, 30.24455105168971], [72.35849393604639, 30.24455105168971], [72.39029653925394, 30.24455105168971], [72.40530325913818, 30.24541531636379], [72.40574351774922, 30.250359613605326], [72.4105896288084, 30.262080351926727], [72.42318951738235, 30.271288521148392], [72.42512796108662, 30.29974467417742], [72.43191251764864, 30.314806355229166], [72.44257396071976, 30.32651939535384], [72.45129696098604, 30.330702284283063], [72.44935851638246, 30.343249879978032], [72.44451240532328, 30.358304871872406], [72.43578940505705, 30.36415896466451], [72.42415873923449, 30.37001270851971], [72.42664237084881, 30.387049286395495], [72.42361355222369, 30.404030649494928], [72.42967119127252, 30.41447925091677], [72.44935851638246, 30.42231496836115], [72.45087292524533, 30.43406736461725], [72.45995938381856, 30.44320713859861], [72.47510348054124, 30.462789482248866], [72.48116111959007, 30.483672978525192], [72.48418993821514, 30.504551994379085], [72.48116111959007, 30.526731038706544], [72.49176198702611, 30.538470836360034], [72.5038772642244, 30.546296580322974], [72.5144781316605, 30.554121692062495], [72.50842049261172, 30.5749855750243], [72.52053576981001, 30.586719538775753], [72.530431990544, 30.60984028929795], [72.53113663814537, 30.61148657204774], [72.52356459023372, 30.61148657204774], [72.48418993821514, 30.61148657204774], [72.46601702286739, 30.61148657204774], [72.43724323828485, 30.608879814252077], [72.41604150341271, 30.607576408824286], [72.37666685229345, 30.61278992441555], [72.35243629789687, 30.61278992441555], [72.3221481035522, 30.61148657204774], [72.30548959796664, 30.599755608434634], [72.30548959796664, 30.59193417672094], [72.28731668171952, 30.585415833873697], [72.26762935660958, 30.582808374606827], [72.24491321107587, 30.576289419321313], [72.22976911435319, 30.56716214591637], [72.21159619900544, 30.5710739396107], [72.19796651204496, 30.580200845192905], [72.18130800466076, 30.58802322389272], [72.16010626978857, 30.58802322389272], [72.12527484705663, 30.585415833873697], [72.11770279914492, 30.595844971268434], [72.11770279914492, 30.602362611745207], [72.12376043729438, 30.61148657204774], [72.1328468958676, 30.623216114731974], [72.13587571449267, 30.633641181795156], [72.14041894467863, 30.662304323685646], [72.14041894467863, 30.680540080960043], [72.13619055455052, 30.699932778275127], [72.13587571449267, 30.701376729752326], [72.12981807634321, 30.701376729752326], [72.09195783408683, 30.703980994627273], [72.0571264122542, 30.711793367469966], [72.0344102667205, 30.709189313935724], [72.0147229416105, 30.703980994627273], [71.98594915792734, 30.702678871632656], [71.96626183191808, 30.700074571684183], [71.9511177351954, 30.677935183861678], [71.93748804823491, 30.677935183861678], [71.91931513198779, 30.668817490035167], [71.90417103526511, 30.657093475483578], [71.87842607110633, 30.658396214513743], [71.83147937207542, 30.6557907202656], [71.80421999725513, 30.65448794616185], [71.79210472005684, 30.644065125605096], [71.7739318047091, 30.632338110015837], [71.7618165275108, 30.632338110015837], [71.74364361036436, 30.607576408824286], [71.72244187549222, 30.593237791690797], [71.69972572995852, 30.584112113683148], [71.67095194717467, 30.582808374606827], [71.65883666997638, 30.593237791690797], [71.64975021140322, 30.610183201693474], [71.63914934396712, 30.62191290175906], [71.62648887885871, 30.633067832514485], [71.60128910261005, 30.63473574845608], [71.57996621376981, 30.63473574845608], [71.56856264654897, 30.629054842606934], [71.56155099318386, 30.625561852397595], [71.5518587710655, 30.61138230285104], [71.55088954831405, 30.593029214626597], [71.5518587710655, 30.574672650522473], [71.55864332582888, 30.559651058549548], [71.5518587710655, 30.544627140030514], [71.54313577079927, 30.527931171386513], [71.52859743852105, 30.52626141723067], [71.51018221703572, 30.536279514987655], [71.50145921676949, 30.550470051551713], [71.49007562169265, 30.55537155545295], [71.49017591948314, 30.553960940045386], [71.4814420643998, 30.55020028371615], [71.47335177316586, 30.543792409991795], [71.46377585856908, 30.53517757478528], [71.45447132519155, 30.528766038122228], [71.45447132519155, 30.52128537751821], [71.45447132519155, 30.50418456286735], [71.45757283601762, 30.491356977642454], [71.44826830353941, 30.473716286477497], [71.43958407214728, 30.46623139096596], [71.4340013524805, 30.457141816241858], [71.42593742397298, 30.44858614833214], [71.42159530827689, 30.437890505842233], [71.41601258861016, 30.42505418730093], [71.4172531925808, 30.41168122530837], [71.42779832992903, 30.405796542076814], [71.43834346817658, 30.405796542076814], [71.45460734855033, 30.393126034239117]]]}}]}